IRIDIUM 36              
1 24967U 97056C   24301.22026451  .00001883  00000+0  62730-3 0  9997
2 24967  86.3919 270.8212 0002522  84.6316 275.5169 14.37154368418759
IRIDIUM 39              
1 25042U 97069D   24300.77152030  .00001887  00000+0  49678-3 0  9998
2 25042  86.3878 311.2237 0018500  13.5448 346.6249 14.48504159415165
IRIDIUM 38              
1 25043U 97069E   24301.11512585  .00001448  00000+0  47597-3 0  9994
2 25043  86.3955 331.2422 0003731 115.6575 244.5008 14.37640653412721
IRIDIUM 42              
1 25077U 97077A   24301.11639481  .00001166  00000+0  39571-3 0  9995
2 25077  86.3972 337.1227 0002553 106.9504 253.1972 14.35911893407748
IRIDIUM 44              
1 25078U 97077B   24300.93329425  .00001373  00000+0  43225-3 0  9990
2 25078  86.3932 319.7450 0004067  83.3626 276.8036 14.39759456410133
IRIDIUM 45              
1 25104U 97082A   24301.07682834  .00036327  00000+0  17174-2 0  9998
2 25104  86.3685 160.0214 0145800 117.0441 244.5764 15.10207673416960
IRIDIUM 24              
1 25105U 97082B   24300.92626278  .00001303  00000+0  39415-3 0  9991
2 25105  86.3967 179.1445 0013020 122.0472 238.1994 14.41597180409604
IRIDIUM 51              
1 25262U 98018A   24301.13464532  .00051985  00000+0  19272-2 0  9991
2 25262  86.3959 169.3962 0127990  54.1032 307.2011 15.19963164411610
