<?xml version="1.0" encoding="UTF-8"?>
<ndm xmlns:xsi="http://www.w3.org/2001/XMLSchema-instance" xsi:noNamespaceSchemaLocation="https://sanaregistry.org/r/ndmxml_unqualified/ndmxml-2.0.0-master-2.0.xsd">
<omm id="CCSDS_OMM_VERS" version="2.0">
<header><CREATION_DATE/><ORIGINATOR/></header><body><segment><metadata><OBJECT_NAME>IRIDIUM 36</OBJECT_NAME><OBJECT_ID>1997-056C</OBJECT_ID><CENTER_NAME>EARTH</CENTER_NAME><REF_FRAME>TEME</REF_FRAME><TIME_SYSTEM>UTC</TIME_SYSTEM><MEAN_ELEMENT_THEORY>SGP4</MEAN_ELEMENT_THEORY></metadata><data><meanElements><EPOCH>2024-10-27T05:17:10.853664</EPOCH><MEAN_MOTION>14.37154368</MEAN_MOTION><ECCENTRICITY>.0002522</ECCENTRICITY><INCLINATION>86.3919</INCLINATION><RA_OF_ASC_NODE>270.8212</RA_OF_ASC_NODE><ARG_OF_PERICENTER>84.6316</ARG_OF_PERICENTER><MEAN_ANOMALY>275.5169</MEAN_ANOMALY></meanElements><tleParameters><EPHEMERIS_TYPE>0</EPHEMERIS_TYPE><CLASSIFICATION_TYPE>U</CLASSIFICATION_TYPE><NORAD_CAT_ID>24967</NORAD_CAT_ID><ELEMENT_SET_NO>999</ELEMENT_SET_NO><REV_AT_EPOCH>41875</REV_AT_EPOCH><BSTAR>.6273E-3</BSTAR><MEAN_MOTION_DOT>.1883E-4</MEAN_MOTION_DOT><MEAN_MOTION_DDOT>0</MEAN_MOTION_DDOT></tleParameters></data></segment></body></omm>
<omm id="CCSDS_OMM_VERS" version="2.0">
<header><CREATION_DATE/><ORIGINATOR/></header><body><segment><metadata><OBJECT_NAME>IRIDIUM 39</OBJECT_NAME><OBJECT_ID>1997-069D</OBJECT_ID><CENTER_NAME>EARTH</CENTER_NAME><REF_FRAME>TEME</REF_FRAME><TIME_SYSTEM>UTC</TIME_SYSTEM><MEAN_ELEMENT_THEORY>SGP4</MEAN_ELEMENT_THEORY></metadata><data><meanElements><EPOCH>2024-10-26T18:30:59.353920</EPOCH><MEAN_MOTION>14.48504159</MEAN_MOTION><ECCENTRICITY>.00185</ECCENTRICITY><INCLINATION>86.3878</INCLINATION><RA_OF_ASC_NODE>311.2237</RA_OF_ASC_NODE><ARG_OF_PERICENTER>13.5448</ARG_OF_PERICENTER><MEAN_ANOMALY>346.6249</MEAN_ANOMALY></meanElements><tleParameters><EPHEMERIS_TYPE>0</EPHEMERIS_TYPE><CLASSIFICATION_TYPE>U</CLASSIFICATION_TYPE><NORAD_CAT_ID>25042</NORAD_CAT_ID><ELEMENT_SET_NO>999</ELEMENT_SET_NO><REV_AT_EPOCH>41516</REV_AT_EPOCH><BSTAR>.49678E-3</BSTAR><MEAN_MOTION_DOT>.1887E-4</MEAN_MOTION_DOT><MEAN_MOTION_DDOT>0</MEAN_MOTION_DDOT></tleParameters></data></segment></body></omm>
<omm id="CCSDS_OMM_VERS" version="2.0">
<header><CREATION_DATE/><ORIGINATOR/></header><body><segment><metadata><OBJECT_NAME>IRIDIUM 38</OBJECT_NAME><OBJECT_ID>1997-069E</OBJECT_ID><CENTER_NAME>EARTH</CENTER_NAME><REF_FRAME>TEME</REF_FRAME><TIME_SYSTEM>UTC</TIME_SYSTEM><MEAN_ELEMENT_THEORY>SGP4</MEAN_ELEMENT_THEORY></metadata><data><meanElements><EPOCH>2024-10-27T02:45:46.873440</EPOCH><MEAN_MOTION>14.37640653</MEAN_MOTION><ECCENTRICITY>.0003731</ECCENTRICITY><INCLINATION>86.3955</INCLINATION><RA_OF_ASC_NODE>331.2422</RA_OF_ASC_NODE><ARG_OF_PERICENTER>115.6575</ARG_OF_PERICENTER><MEAN_ANOMALY>244.5008</MEAN_ANOMALY></meanElements><tleParameters><EPHEMERIS_TYPE>0</EPHEMERIS_TYPE><CLASSIFICATION_TYPE>U</CLASSIFICATION_TYPE><NORAD_CAT_ID>25043</NORAD_CAT_ID><ELEMENT_SET_NO>999</ELEMENT_SET_NO><REV_AT_EPOCH>41272</REV_AT_EPOCH><BSTAR>.47597E-3</BSTAR><MEAN_MOTION_DOT>.1448E-4</MEAN_MOTION_DOT><MEAN_MOTION_DDOT>0</MEAN_MOTION_DDOT></tleParameters></data></segment></body></omm>
<omm id="CCSDS_OMM_VERS" version="2.0">
<header><CREATION_DATE/><ORIGINATOR/></header><body><segment><metadata><OBJECT_NAME>IRIDIUM 42</OBJECT_NAME><OBJECT_ID>1997-077A</OBJECT_ID><CENTER_NAME>EARTH</CENTER_NAME><REF_FRAME>TEME</REF_FRAME><TIME_SYSTEM>UTC</TIME_SYSTEM><MEAN_ELEMENT_THEORY>SGP4</MEAN_ELEMENT_THEORY></metadata><data><meanElements><EPOCH>2024-10-27T02:47:36.511584</EPOCH><MEAN_MOTION>14.35911893</MEAN_MOTION><ECCENTRICITY>.0002553</ECCENTRICITY><INCLINATION>86.3972</INCLINATION><RA_OF_ASC_NODE>337.1227</RA_OF_ASC_NODE><ARG_OF_PERICENTER>106.9504</ARG_OF_PERICENTER><MEAN_ANOMALY>253.1972</MEAN_ANOMALY></meanElements><tleParameters><EPHEMERIS_TYPE>0</EPHEMERIS_TYPE><CLASSIFICATION_TYPE>U</CLASSIFICATION_TYPE><NORAD_CAT_ID>25077</NORAD_CAT_ID><ELEMENT_SET_NO>999</ELEMENT_SET_NO><REV_AT_EPOCH>40774</REV_AT_EPOCH><BSTAR>.39571E-3</BSTAR><MEAN_MOTION_DOT>.1166E-4</MEAN_MOTION_DOT><MEAN_MOTION_DDOT>0</MEAN_MOTION_DDOT></tleParameters></data></segment></body></omm>
<omm id="CCSDS_OMM_VERS" version="2.0">
<header><CREATION_DATE/><ORIGINATOR/></header><body><segment><metadata><OBJECT_NAME>IRIDIUM 44</OBJECT_NAME><OBJECT_ID>1997-077B</OBJECT_ID><CENTER_NAME>EARTH</CENTER_NAME><REF_FRAME>TEME</REF_FRAME><TIME_SYSTEM>UTC</TIME_SYSTEM><MEAN_ELEMENT_THEORY>SGP4</MEAN_ELEMENT_THEORY></metadata><data><meanElements><EPOCH>2024-10-26T22:23:56.623200</EPOCH><MEAN_MOTION>14.39759456</MEAN_MOTION><ECCENTRICITY>.0004067</ECCENTRICITY><INCLINATION>86.3932</INCLINATION><RA_OF_ASC_NODE>319.7450</RA_OF_ASC_NODE><ARG_OF_PERICENTER>83.3626</ARG_OF_PERICENTER><MEAN_ANOMALY>276.8036</MEAN_ANOMALY></meanElements><tleParameters><EPHEMERIS_TYPE>0</EPHEMERIS_TYPE><CLASSIFICATION_TYPE>U</CLASSIFICATION_TYPE><NORAD_CAT_ID>25078</NORAD_CAT_ID><ELEMENT_SET_NO>999</ELEMENT_SET_NO><REV_AT_EPOCH>41013</REV_AT_EPOCH><BSTAR>.43225E-3</BSTAR><MEAN_MOTION_DOT>.1373E-4</MEAN_MOTION_DOT><MEAN_MOTION_DDOT>0</MEAN_MOTION_DDOT></tleParameters></data></segment></body></omm>
<omm id="CCSDS_OMM_VERS" version="2.0">
<header><CREATION_DATE/><ORIGINATOR/></header><body><segment><metadata><OBJECT_NAME>IRIDIUM 45</OBJECT_NAME><OBJECT_ID>1997-082A</OBJECT_ID><CENTER_NAME>EARTH</CENTER_NAME><REF_FRAME>TEME</REF_FRAME><TIME_SYSTEM>UTC</TIME_SYSTEM><MEAN_ELEMENT_THEORY>SGP4</MEAN_ELEMENT_THEORY></metadata><data><meanElements><EPOCH>2024-10-27T01:50:37.968576</EPOCH><MEAN_MOTION>15.10207673</MEAN_MOTION><ECCENTRICITY>.01458</ECCENTRICITY><INCLINATION>86.3685</INCLINATION><RA_OF_ASC_NODE>160.0214</RA_OF_ASC_NODE><ARG_OF_PERICENTER>117.0441</ARG_OF_PERICENTER><MEAN_ANOMALY>244.5764</MEAN_ANOMALY></meanElements><tleParameters><EPHEMERIS_TYPE>0</EPHEMERIS_TYPE><CLASSIFICATION_TYPE>U</CLASSIFICATION_TYPE><NORAD_CAT_ID>25104</NORAD_CAT_ID><ELEMENT_SET_NO>999</ELEMENT_SET_NO><REV_AT_EPOCH>41696</REV_AT_EPOCH><BSTAR>.17174E-2</BSTAR><MEAN_MOTION_DOT>.36327E-3</MEAN_MOTION_DOT><MEAN_MOTION_DDOT>0</MEAN_MOTION_DDOT></tleParameters></data></segment></body></omm>
<omm id="CCSDS_OMM_VERS" version="2.0">
<header><CREATION_DATE/><ORIGINATOR/></header><body><segment><metadata><OBJECT_NAME>IRIDIUM 24</OBJECT_NAME><OBJECT_ID>1997-082B</OBJECT_ID><CENTER_NAME>EARTH</CENTER_NAME><REF_FRAME>TEME</REF_FRAME><TIME_SYSTEM>UTC</TIME_SYSTEM><MEAN_ELEMENT_THEORY>SGP4</MEAN_ELEMENT_THEORY></metadata><data><meanElements><EPOCH>2024-10-26T22:13:49.104192</EPOCH><MEAN_MOTION>14.41597180</MEAN_MOTION><ECCENTRICITY>.001302</ECCENTRICITY><INCLINATION>86.3967</INCLINATION><RA_OF_ASC_NODE>179.1445</RA_OF_ASC_NODE><ARG_OF_PERICENTER>122.0472</ARG_OF_PERICENTER><MEAN_ANOMALY>238.1994</MEAN_ANOMALY></meanElements><tleParameters><EPHEMERIS_TYPE>0</EPHEMERIS_TYPE><CLASSIFICATION_TYPE>U</CLASSIFICATION_TYPE><NORAD_CAT_ID>25105</NORAD_CAT_ID><ELEMENT_SET_NO>999</ELEMENT_SET_NO><REV_AT_EPOCH>40960</REV_AT_EPOCH><BSTAR>.39415E-3</BSTAR><MEAN_MOTION_DOT>.1303E-4</MEAN_MOTION_DOT><MEAN_MOTION_DDOT>0</MEAN_MOTION_DDOT></tleParameters></data></segment></body></omm>
<omm id="CCSDS_OMM_VERS" version="2.0">
<header><CREATION_DATE/><ORIGINATOR/></header><body><segment><metadata><OBJECT_NAME>IRIDIUM 51</OBJECT_NAME><OBJECT_ID>1998-018A</OBJECT_ID><CENTER_NAME>EARTH</CENTER_NAME><REF_FRAME>TEME</REF_FRAME><TIME_SYSTEM>UTC</TIME_SYSTEM><MEAN_ELEMENT_THEORY>SGP4</MEAN_ELEMENT_THEORY></metadata><data><meanElements><EPOCH>2024-10-27T03:13:53.355648</EPOCH><MEAN_MOTION>15.19963164</MEAN_MOTION><ECCENTRICITY>.012799</ECCENTRICITY><INCLINATION>86.3959</INCLINATION><RA_OF_ASC_NODE>169.3962</RA_OF_ASC_NODE><ARG_OF_PERICENTER>54.1032</ARG_OF_PERICENTER><MEAN_ANOMALY>307.2011</MEAN_ANOMALY></meanElements><tleParameters><EPHEMERIS_TYPE>0</EPHEMERIS_TYPE><CLASSIFICATION_TYPE>U</CLASSIFICATION_TYPE><NORAD_CAT_ID>25262</NORAD_CAT_ID><ELEMENT_SET_NO>999</ELEMENT_SET_NO><REV_AT_EPOCH>41161</REV_AT_EPOCH><BSTAR>.19272E-2</BSTAR><MEAN_MOTION_DOT>.51985E-3</MEAN_MOTION_DOT><MEAN_MOTION_DDOT>0</MEAN_MOTION_DDOT></tleParameters></data></segment></body></omm>

</ndm>
